CCSDS_OMM_VERS = 2.0
CREATION_DATE  = 
ORIGINATOR     = 

OBJECT_NAME    = H-2A R/B
OBJECT_ID      = 2006-002B
CENTER_NAME    = EARTH
REF_FRAME      = TEME
TIME_SYSTEM    = UTC
MEAN_ELEMENT_THEORY = SGP/SGP4

EPOCH          = 2026-03-17T22:08:59.726400
MEAN_MOTION    = 15.16600628
ECCENTRICITY   = .0052048
INCLINATION    = 98.2420
RA_OF_ASC_NODE = 224.6566
ARG_OF_PERICENTER = 212.6858
MEAN_ANOMALY   = 147.1149

EPHEMERIS_TYPE = 0
CLASSIFICATION_TYPE = U
NORAD_CAT_ID   = 28932
ELEMENT_SET_NO = 999
REV_AT_EPOCH   = 9568
BSTAR          = .36317022E-3
MEAN_MOTION_DOT = .7264E-4
MEAN_MOTION_DDOT = 0

CCSDS_OMM_VERS = 2.0
CREATION_DATE  = 
ORIGINATOR     = 

OBJECT_NAME    = RESURS-DK 1
OBJECT_ID      = 2006-021A
CENTER_NAME    = EARTH
REF_FRAME      = TEME
TIME_SYSTEM    = UTC
MEAN_ELEMENT_THEORY = SGP/SGP4

EPOCH          = 2026-03-17T19:13:08.215392
MEAN_MOTION    = 15.12803044
ECCENTRICITY   = .00010454
INCLINATION    = 69.9330
RA_OF_ASC_NODE = 216.0400
ARG_OF_PERICENTER = 145.6681
MEAN_ANOMALY   = 214.4553

EPHEMERIS_TYPE = 0
CLASSIFICATION_TYPE = U
NORAD_CAT_ID   = 29228
ELEMENT_SET_NO = 999
REV_AT_EPOCH   = 8875
BSTAR          = .15950008E-3
MEAN_MOTION_DOT = .27E-4
MEAN_MOTION_DDOT = 0

CCSDS_OMM_VERS = 2.0
CREATION_DATE  = 
ORIGINATOR     = 

OBJECT_NAME    = CZ-4B R/B
OBJECT_ID      = 2006-046C
CENTER_NAME    = EARTH
REF_FRAME      = TEME
TIME_SYSTEM    = UTC
MEAN_ELEMENT_THEORY = SGP/SGP4

EPOCH          = 2026-03-17T20:30:44.437536
MEAN_MOTION    = 15.16987740
ECCENTRICITY   = .00318678
INCLINATION    = 97.5579
RA_OF_ASC_NODE = 121.7415
ARG_OF_PERICENTER = 237.6086
MEAN_ANOMALY   = 122.2063

EPHEMERIS_TYPE = 0
CLASSIFICATION_TYPE = U
NORAD_CAT_ID   = 29507
ELEMENT_SET_NO = 999
REV_AT_EPOCH   = 6128
BSTAR          = .18244127E-3
MEAN_MOTION_DOT = .3579E-4
MEAN_MOTION_DDOT = 0

CCSDS_OMM_VERS = 2.0
CREATION_DATE  = 
ORIGINATOR     = 

OBJECT_NAME    = CZ-2C R/B
OBJECT_ID      = 2007-010B
CENTER_NAME    = EARTH
REF_FRAME      = TEME
TIME_SYSTEM    = UTC
MEAN_ELEMENT_THEORY = SGP/SGP4

EPOCH          = 2026-03-17T21:33:17.225856
MEAN_MOTION    = 14.20249154
ECCENTRICITY   = .00578316
INCLINATION    = 98.3985
RA_OF_ASC_NODE = 189.7657
ARG_OF_PERICENTER = 270.2784
MEAN_ANOMALY   = 89.1767

EPHEMERIS_TYPE = 0
CLASSIFICATION_TYPE = U
NORAD_CAT_ID   = 31114
ELEMENT_SET_NO = 999
REV_AT_EPOCH   = 98088
BSTAR          = .69582973E-4
MEAN_MOTION_DOT = .11E-5
MEAN_MOTION_DDOT = 0

CCSDS_OMM_VERS = 2.0
CREATION_DATE  = 
ORIGINATOR     = 

OBJECT_NAME    = COSMO-SKYMED 1
OBJECT_ID      = 2007-023A
CENTER_NAME    = EARTH
REF_FRAME      = TEME
TIME_SYSTEM    = UTC
MEAN_ELEMENT_THEORY = SGP/SGP4

EPOCH          = 2026-03-17T22:55:29.269632
MEAN_MOTION    = 14.96604937
ECCENTRICITY   = .00015555
INCLINATION    = 97.8881
RA_OF_ASC_NODE = 268.0546
ARG_OF_PERICENTER = 89.5180
MEAN_ANOMALY   = 270.6219

EPHEMERIS_TYPE = 0
CLASSIFICATION_TYPE = U
NORAD_CAT_ID   = 31598
ELEMENT_SET_NO = 999
REV_AT_EPOCH   = 1614
BSTAR          = .26208292E-3
MEAN_MOTION_DOT = .2926E-4
MEAN_MOTION_DDOT = 0

CCSDS_OMM_VERS = 2.0
CREATION_DATE  = 
ORIGINATOR     = 

OBJECT_NAME    = COSMOS 2428
OBJECT_ID      = 2007-029A
CENTER_NAME    = EARTH
REF_FRAME      = TEME
TIME_SYSTEM    = UTC
MEAN_ELEMENT_THEORY = SGP/SGP4

EPOCH          = 2026-03-17T14:31:42.398112
MEAN_MOTION    = 14.12947317
ECCENTRICITY   = .00094133
INCLINATION    = 70.9440
RA_OF_ASC_NODE = 186.7297
ARG_OF_PERICENTER = 269.0146
MEAN_ANOMALY   = 90.9896

EPHEMERIS_TYPE = 0
CLASSIFICATION_TYPE = U
NORAD_CAT_ID   = 31792
ELEMENT_SET_NO = 999
REV_AT_EPOCH   = 96521
BSTAR          = .14894663E-4
MEAN_MOTION_DOT = -.2E-6
MEAN_MOTION_DDOT = 0

CCSDS_OMM_VERS = 2.0
CREATION_DATE  = 
ORIGINATOR     = 

OBJECT_NAME    = SL-16 R/B
OBJECT_ID      = 2007-029B
CENTER_NAME    = EARTH
REF_FRAME      = TEME
TIME_SYSTEM    = UTC
MEAN_ELEMENT_THEORY = SGP/SGP4

EPOCH          = 2026-03-17T23:58:34.908960
MEAN_MOTION    = 14.14837640
ECCENTRICITY   = .00022963
INCLINATION    = 70.9757
RA_OF_ASC_NODE = 154.9192
ARG_OF_PERICENTER = 276.4346
MEAN_ANOMALY   = 256.4767

EPHEMERIS_TYPE = 0
CLASSIFICATION_TYPE = U
NORAD_CAT_ID   = 31793
ELEMENT_SET_NO = 999
REV_AT_EPOCH   = 96654
BSTAR          = .20138716E-3
MEAN_MOTION_DOT = .341E-5
MEAN_MOTION_DDOT = 0

CCSDS_OMM_VERS = 2.0
CREATION_DATE  = 
ORIGINATOR     = 

OBJECT_NAME    = KORONAS-FOTON
OBJECT_ID      = 2009-003A
CENTER_NAME    = EARTH
REF_FRAME      = TEME
TIME_SYSTEM    = UTC
MEAN_ELEMENT_THEORY = SGP/SGP4

EPOCH          = 2026-03-17T22:23:57.331680
MEAN_MOTION    = 15.43520080
ECCENTRICITY   = .00117457
INCLINATION    = 82.4269
RA_OF_ASC_NODE = 267.3054
ARG_OF_PERICENTER = 122.6583
MEAN_ANOMALY   = 237.5800

EPHEMERIS_TYPE = 0
CLASSIFICATION_TYPE = U
NORAD_CAT_ID   = 33504
ELEMENT_SET_NO = 999
REV_AT_EPOCH   = 94701
BSTAR          = .23183666E-3
MEAN_MOTION_DOT = .10459E-3
MEAN_MOTION_DDOT = 0

CCSDS_OMM_VERS = 2.0
CREATION_DATE  = 
ORIGINATOR     = 

OBJECT_NAME    = CZ-2C R/B
OBJECT_ID      = 2011-030B
CENTER_NAME    = EARTH
REF_FRAME      = TEME
TIME_SYSTEM    = UTC
MEAN_ELEMENT_THEORY = SGP/SGP4

EPOCH          = 2026-03-17T20:26:37.707648
MEAN_MOTION    = 14.81252860
ECCENTRICITY   = .0051727
INCLINATION    = 97.8558
RA_OF_ASC_NODE = 33.9523
ARG_OF_PERICENTER = 325.3028
MEAN_ANOMALY   = 87.9889

EPHEMERIS_TYPE = 0
CLASSIFICATION_TYPE = U
NORAD_CAT_ID   = 37731
ELEMENT_SET_NO = 999
REV_AT_EPOCH   = 79130
BSTAR          = .18526569E-3
MEAN_MOTION_DOT = .1422E-4
MEAN_MOTION_DDOT = 0

CCSDS_OMM_VERS = 2.0
CREATION_DATE  = 
ORIGINATOR     = 

OBJECT_NAME    = H-2A R/B
OBJECT_ID      = 2012-025E
CENTER_NAME    = EARTH
REF_FRAME      = TEME
TIME_SYSTEM    = UTC
MEAN_ELEMENT_THEORY = SGP/SGP4

EPOCH          = 2026-03-17T21:25:51.719808
MEAN_MOTION    = 14.95226109
ECCENTRICITY   = .00432468
INCLINATION    = 98.4739
RA_OF_ASC_NODE = 44.5965
ARG_OF_PERICENTER = 286.6087
MEAN_ANOMALY   = 73.0385

EPHEMERIS_TYPE = 0
CLASSIFICATION_TYPE = U
NORAD_CAT_ID   = 38341
ELEMENT_SET_NO = 999
REV_AT_EPOCH   = 74944
BSTAR          = .21161581E-3
MEAN_MOTION_DOT = .23E-4
MEAN_MOTION_DDOT = 0

CCSDS_OMM_VERS = 2.0
CREATION_DATE  = 
ORIGINATOR     = 

OBJECT_NAME    = SHIJIAN-16 (SJ-16)
OBJECT_ID      = 2013-057A
CENTER_NAME    = EARTH
REF_FRAME      = TEME
TIME_SYSTEM    = UTC
MEAN_ELEMENT_THEORY = SGP/SGP4

EPOCH          = 2026-03-17T22:36:07.085088
MEAN_MOTION    = 14.92383122
ECCENTRICITY   = .0015359
INCLINATION    = 74.9739
RA_OF_ASC_NODE = 169.4679
ARG_OF_PERICENTER = 91.4316
MEAN_ANOMALY   = 268.8631

EPHEMERIS_TYPE = 0
CLASSIFICATION_TYPE = U
NORAD_CAT_ID   = 39358
ELEMENT_SET_NO = 999
REV_AT_EPOCH   = 67273
BSTAR          = .16644864E-3
MEAN_MOTION_DOT = .1679E-4
MEAN_MOTION_DDOT = 0

CCSDS_OMM_VERS = 2.0
CREATION_DATE  = 
ORIGINATOR     = 

OBJECT_NAME    = SL-4 R/B
OBJECT_ID      = 2014-021B
CENTER_NAME    = EARTH
REF_FRAME      = TEME
TIME_SYSTEM    = UTC
MEAN_ELEMENT_THEORY = SGP/SGP4

EPOCH          = 2026-03-17T20:58:21.110880
MEAN_MOTION    = 15.39450881
ECCENTRICITY   = .00968213
INCLINATION    = 51.6063
RA_OF_ASC_NODE = 297.3445
ARG_OF_PERICENTER = 132.8225
MEAN_ANOMALY   = 228.0948

EPHEMERIS_TYPE = 0
CLASSIFICATION_TYPE = U
NORAD_CAT_ID   = 39679
ELEMENT_SET_NO = 999
REV_AT_EPOCH   = 65753
BSTAR          = .27194125E-3
MEAN_MOTION_DOT = .12319E-3
MEAN_MOTION_DDOT = 0

