H-2A R/B                
1 28932U 06002B   26076.92291350  .00007264  00000+0  36317-3 0  9995
2 28932  98.2420 224.6566 0052048 212.6858 147.1149 15.16600628 95683
RESURS-DK 1             
1 29228U 06021A   26076.80078953  .00002700  00000+0  15950-3 0  9994
2 29228  69.9330 216.0400 0001045 145.6681 214.4553 15.12803044 88759
CZ-4B R/B               
1 29507U 06046C   26076.85468099  .00003579  00000+0  18244-3 0  9994
2 29507  97.5579 121.7415 0031867 237.6086 122.2063 15.16987740 61286
CZ-2C R/B               
1 31114U 07010B   26076.89811604  .00000110  00000+0  69583-4 0  9992
2 31114  98.3985 189.7657 0057831 270.2784  89.1767 14.20249154980884
COSMO-SKYMED 1          
1 31598U 07023A   26076.95519988  .00002926  00000+0  26208-3 0  9992
2 31598  97.8881 268.0546 0001555  89.5180 270.6219 14.96604937 16145
COSMOS 2428             
1 31792U 07029A   26076.60535183 -.00000020  00000+0  14895-4 0  9995
2 31792  70.9440 186.7297 0009413 269.0146  90.9896 14.12947317965216
SL-16 R/B               
1 31793U 07029B   26076.99901515  .00000341  00000+0  20139-3 0  9996
2 31793  70.9757 154.9192 0002296 276.4346 256.4767 14.14837640966547
KORONAS-FOTON           
1 33504U 09003A   26076.93330245  .00010459  00000+0  23184-3 0  9996
2 33504  82.4269 267.3054 0011745 122.6583 237.5800 15.43520080947014
CZ-2C R/B               
1 37731U 11030B   26076.85182532  .00001422  00000+0  18527-3 0  9995
2 37731  97.8558  33.9523 0051727 325.3028  87.9889 14.81252860791301
H-2A R/B                
1 38341U 12025E   26076.89295972  .00002300  00000+0  21162-3 0  9990
2 38341  98.4739  44.5965 0043246 286.6087  73.0385 14.95226109749443
SHIJIAN-16 (SJ-16)      
1 39358U 13057A   26076.94174867  .00001679  00000+0  16645-3 0  9998
2 39358  74.9739 169.4679 0015359  91.4316 268.8631 14.92383122672732
SL-4 R/B                
1 39679U 14021B   26076.87385545  .00012319  00000+0  27194-3 0  9999
2 39679  51.6063 297.3445 0096821 132.8225 228.0948 15.39450881657533
